TRANSPORTER-10 OBJECT AG
1 59128U 24043AG  26068.92552531  .00009498  00000+0  32170-3 0  9997
2 59128  97.5471 205.7101 0009300 226.5958 133.4509 15.30759727111920
STARLINK-35274          
1 66073U 25235R   26068.73345334  .00024911  00000+0  85006-3 0  9991
2 66073  53.1599 245.3852 0001138 125.2737 234.8371 15.30212157 22925
